NORAD_CAT_ID,OBJECT_NAME,OBJECT_TYPE,EPOCH,MEAN_MOTION,ECCENTRICITY,INCLINATION,RA_OF_ASC_NODE,ARG_OF_PERICENTER,MEAN_ANOMALY,BSTAR,MEAN_MOTION_DOT,MEAN_MOTION_DDOT,TLE_LINE0,TLE_LINE1,TLE_LINE2,SEMIMAJOR_AXIS,PERIOD,APOGEE,PERIGEE,DECAYED
55391.0,STARLINK-5077,PAYLOAD,2023-10-02 00:48:14,14.97532763,0.0002878,69.9995,146.3958,269.9054,90.1774,2.6634e-05,2.19e-06,0.0,0 STARLINK-5077,1 55391U 23014A   23275.03350255  .00000219  00000-0  26634-4 0  9992,2 55391  69.9995 146.3958 0002878 269.9054  90.1774 14.97532763 37889,6952.659,96.158,576.525,572.523,0.0
55391.0,STARLINK-5077,PAYLOAD,2023-10-02 08:49:11,14.97522675,0.0002372,70.0012,145.5546,275.4422,84.6466,-8.8867e-05,-1.13e-05,0.0,0 STARLINK-5077,1 55391U 23014A   23275.36749285 -.00001130  00000-0 -88867-4 0  9994,2 55391  70.0012 145.5546 0002372 275.4422  84.6466 14.97522675 37939,6952.691,96.159,576.205,572.906,0.0
55391.0,STARLINK-5077,PAYLOAD,2023-10-02 21:38:40,14.97515186,0.0002915,70.0001,144.2104,271.9318,88.1507,5.4804e-05,5.48e-06,0.0,0 STARLINK-5077,1 55391U 23014A   23275.90186174  .00000548  00000-0  54804-4 0  9990,2 55391  70.0001 144.2104 0002915 271.9318  88.1507 14.97515186 38958,6952.714,96.159,576.605,572.552,0.0
55391.0,STARLINK-5077,PAYLOAD,2023-10-03 08:51:59,14.97518246,0.0003003,69.9991,143.0314,263.3423,96.7394,5.8709e-06,-2.4e-07,0.0,0 STARLINK-5077,1 55391U 23014A   23276.36943320 -.00000024  00000-0  58709-5 0  9994,2 55391  69.9991 143.0314 0003003 263.3423  96.7394 14.97518246 38087,6952.704,96.159,576.657,572.481,0.0
55391.0,STARLINK-5077,PAYLOAD,2023-10-03 20:05:17,14.97521883,0.0003006,69.9991,141.854,269.6314,90.45,-2.6837e-05,-4.06e-06,0.0,0 STARLINK-5077,1 55391U 23014A   23276.83700423 -.00000406  00000-0 -26837-4 0  9992,2 55391  69.9991 141.8540 0003006 269.6314  90.4500 14.97521883 39098,6952.693,96.159,576.648,572.468,0.0
55391.0,STARLINK-5077,PAYLOAD,2023-10-04 18:31:53,14.97522511,0.0003094,69.9987,139.4985,268.8208,91.2596,0.00012807,1.405e-05,0.0,0 STARLINK-5077,1 55391U 23014A   23277.77214191  .00001405  00000-0  12807-3 0  9997,2 55391  69.9987 139.4985 0003094 268.8208  91.2596 14.97522511 38293,6952.691,96.159,576.707,572.405,0.0
55391.0,STARLINK-5077,PAYLOAD,2023-10-04 21:44:15,14.97527002,0.0003126,69.9986,139.1628,270.3089,89.7711,0.00011136,1.209e-05,0.0,0 STARLINK-5077,1 55391U 23014A   23277.90573141  .00001209  00000-0  11136-3 0  9991,2 55391  69.9986 139.1628 0003126 270.3089  89.7711 14.97527002 39252,6952.677,96.159,576.716,572.369,0.0
55391.0,STARLINK-5077,PAYLOAD,2023-10-05 00:56:37,14.97529301,0.0003102,69.9987,138.8262,270.081,89.9993,0.00013263,1.458e-05,0.0,0 STARLINK-5077,1 55391U 23014A   23278.03932092  .00001458  00000-0  13263-3 0  9999,2 55391  69.9987 138.8262 0003102 270.0810  89.9993 14.97529301 38332,6952.67,96.158,576.692,572.378,0.0
55391.0,STARLINK-5077,PAYLOAD,2023-10-05 13:46:07,14.97520645,0.0002817,69.9998,137.483,267.6045,92.4791,4.6393e-05,4.5e-06,0.0,0 STARLINK-5077,1 55391U 23014A   23278.57369662  .00000450  00000-0  46393-4 0  9997,2 55391  69.9998 137.4830 0002817 267.6045  92.4791 14.97520645 39354,6952.697,96.159,576.52,572.603,0.0
55391.0,STARLINK-5077,PAYLOAD,2023-10-05 18:34:41,14.97519292,0.000282,70.0001,136.9769,270.3664,89.7172,-1.7668e-06,-1.13e-06,0.0,0 STARLINK-5077,1 55391U 23014A   23278.77408724 -.00000113  00000-0 -17668-5 0  9994,2 55391  70.0001 136.9769 0002820 270.3664  89.7172 14.97519292 38446,6952.701,96.159,576.527,572.605,0.0
55391.0,STARLINK-5077,PAYLOAD,2023-10-05 21:47:03,14.97520792,0.0002781,69.9994,136.6401,264.5446,95.5395,-1.181e-05,-2.3e-06,0.0,0 STARLINK-5077,1 55391U 23014A   23278.90767853 -.00000230  00000-0 -11810-4 0  9992,2 55391  69.9994 136.6401 0002781 264.5446  95.5395 14.97520792 39409,6952.696,96.159,576.495,572.628,0.0
55391.0,STARLINK-5077,PAYLOAD,2023-10-06 13:48:55,14.97518616,0.0003107,69.9991,134.9575,273.7006,86.3797,-1.7917e-05,-3.02e-06,0.0,0 STARLINK-5077,1 55391U 23014A   23279.57563980 -.00000302  00000-0 -17917-4 0  9995,2 55391  69.9991 134.9575 0003107 273.7006  86.3797 14.97518616 39503,6952.703,96.159,576.728,572.408,0.0
55391.0,STARLINK-5077,PAYLOAD,2023-10-06 18:37:28,14.97521041,0.0003069,69.9991,134.4531,272.1162,87.9645,-4.5391e-05,-6.23e-06,0.0,0 STARLINK-5077,1 55391U 23014A   23279.77602743 -.00000623  00000-0 -45391-4 0  9991,2 55391  69.9991 134.4531 0003069 272.1162  87.9645 14.97521041 38596,6952.696,96.159,576.694,572.427,0.0
55391.0,STARLINK-5077,PAYLOAD,2023-10-06 21:49:51,14.9752145,0.0002831,69.9992,134.1164,266.432,93.6515,-2.5543e-05,-3.91e-06,0.0,0 STARLINK-5077,1 55391U 23014A   23279.90961843 -.00000391  00000-0 -25543-4 0  9994,2 55391  69.9992 134.1164 0002831 266.4320  93.6515 14.97521450 39555,6952.694,96.159,576.528,572.591,0.0
55391.0,STARLINK-5077,PAYLOAD,2023-10-07 13:51:42,14.97521751,0.000282,69.999,132.4349,266.123,93.9606,8.059e-05,8.5e-06,0.0,0 STARLINK-5077,1 55391U 23014A   23280.57757508  .00000850  00000-0  80590-4 0  9991,2 55391  69.9990 132.4349 0002820 266.1230  93.9606 14.97521751 39653,6952.693,96.159,576.519,572.598,0.0
55391.0,STARLINK-5077,PAYLOAD,2023-10-07 18:40:15,14.97522406,0.0002841,69.9991,131.9304,266.2614,93.822,7.6859e-05,8.06e-06,0.0,0 STARLINK-5077,1 55391U 23014A   23280.77796275  .00000806  00000-0  76859-4 0  9991,2 55391  69.9991 131.9304 0002841 266.2614  93.8220 14.97522406 38747,6952.691,96.159,576.532,572.581,0.0
55391.0,STARLINK-5077,PAYLOAD,2023-10-07 21:52:38,14.97524565,0.0002751,69.9989,131.5935,264.7976,95.2868,8.2504e-05,8.72e-06,0.0,0 STARLINK-5077,1 55391U 23014A   23280.91155312  .00000872  00000-0  82504-4 0  9995,2 55391  69.9989 131.5935 0002751 264.7976  95.2868 14.97524565 39703,6952.685,96.159,576.462,572.637,0.0
55391.0,STARLINK-5077,PAYLOAD,2023-10-08 13:54:30,14.97522915,0.0003091,69.9983,129.9108,269.7439,90.3365,-3.0167e-05,-4.45e-06,0.0,0 STARLINK-5077,1 55391U 23014A   23281.57951634 -.00000445  00000-0 -30167-4 0  9995,2 55391  69.9983 129.9108 0003091 269.7439  90.3365 14.97522915 39803,6952.69,96.159,576.704,572.406,0.0
55391.0,STARLINK-5077,PAYLOAD,2023-10-08 18:43:04,14.97512769,0.0002881,69.9984,129.4058,270.8135,89.2693,0.00015087,1.671e-05,0.0,0 STARLINK-5077,1 55391U 23014A   23281.77990784  .00001671  00000-0  15087-3 0  9999,2 55391  69.9984 129.4058 0002881 270.8135  89.2693 14.97512769 38890,6952.721,96.159,576.589,572.583,0.0
55391.0,STARLINK-5077,PAYLOAD,2023-10-08 20:19:14,14.97522145,0.0002928,69.9984,129.2379,269.7749,90.3074,2.2635e-05,1.72e-06,0.0,0 STARLINK-5077,1 55391U 23014A   23281.84670043  .00000172  00000-0  22635-4 0  9993,2 55391  69.9984 129.2379 0002928 269.7749  90.3074 14.97522145 39845,6952.692,96.159,576.593,572.521,0.0
55391.0,STARLINK-5077,PAYLOAD,2023-10-09 13:57:17,14.97524455,0.0002994,69.9981,127.387,269.7053,90.3762,-4.5698e-05,-6.26e-06,0.0,0 STARLINK-5077,1 55391U 23014A   23282.58145677 -.00000626  00000-0 -45698-4 0  9995,2 55391  69.9981 127.3870 0002994 269.7053  90.3762 14.97524455 39950,6952.685,96.159,576.632,572.468,0.0
55391.0,STARLINK-5077,PAYLOAD,2023-10-09 18:45:51,14.97524072,0.0003001,69.9981,126.8824,269.7409,90.3406,-4.6136e-05,-6.31e-06,0.0,0 STARLINK-5077,1 55391U 23014A   23282.78184472 -.00000631  00000-0 -46136-4 0  9997,2 55391  69.9981 126.8824 0003001 269.7409  90.3406 14.97524072 39048,6952.686,96.159,576.638,572.465,0.0
55391.0,STARLINK-5077,PAYLOAD,2023-10-09 21:58:13,14.97525053,0.0002993,69.9981,126.546,269.747,90.3345,-3.1977e-05,-4.66e-06,0.0,0 STARLINK-5077,1 55391U 23014A   23282.91543553 -.00000466  00000-0 -31977-4 0  9994,2 55391  69.9981 126.5460 0002993 269.7470  90.3345 14.97525053 40008,6952.683,96.159,576.629,572.467,0.0
55391.0,STARLINK-5077,PAYLOAD,2023-10-10 14:00:05,14.97523023,0.0003025,69.998,124.8641,270.0925,89.9887,6.9871e-05,7.24e-06,0.0,0 STARLINK-5077,1 55391U 23014A   23283.58339343  .00000724  00000-0  69871-4 0  9997,2 55391  69.9980 124.8641 0003025 270.0925  89.9887 14.97523023 40107,6952.69,96.159,576.658,572.451,0.0
55391.0,STARLINK-5077,PAYLOAD,2023-10-10 18:48:38,14.9752489,0.000302,69.9982,124.3595,270.0945,89.9868,8.6174e-05,9.15e-06,0.0,0 STARLINK-5077,1 55391U 23014A   23283.78377965  .00000915  00000-0  86174-4 0  9998,2 55391  69.9982 124.3595 0003020 270.0945  89.9868 14.97524890 39198,6952.684,96.159,576.648,572.449,0.0
55391.0,STARLINK-5077,PAYLOAD,2023-10-10 22:01:00,14.97525955,0.0003054,69.9982,124.0234,270.765,89.3159,6.4592e-05,6.63e-06,0.0,0 STARLINK-5077,1 55391U 23014A   23283.91737125  .00000663  00000-0  64592-4 0  9991,2 55391  69.9982 124.0234 0003054 270.7650  89.3159 14.97525955 40150,6952.68,96.159,576.669,572.422,0.0
55391.0,STARLINK-5077,PAYLOAD,2023-10-11 14:02:53,14.97518994,0.0002922,69.9986,122.3413,272.1935,87.8889,-5.6511e-06,-1.58e-06,0.0,0 STARLINK-5077,1 55391U 23014A   23284.58533772 -.00000158  00000-0 -56511-5 0  9991,2 55391  69.9986 122.3413 0002922 272.1935  87.8889 14.97518994 40258,6952.702,96.159,576.599,572.535,0.0
55391.0,STARLINK-5077,PAYLOAD,2023-10-11 18:51:26,14.97519302,0.0002925,69.9987,121.8367,272.2377,87.8446,-2.5602e-06,-1.22e-06,0.0,0 STARLINK-5077,1 55391U 23014A   23284.78572572 -.00000122  00000-0 -25602-5 0  9992,2 55391  69.9987 121.8367 0002925 272.2377  87.8446 14.97519302 39346,6952.701,96.159,576.6,572.532,0.0
55391.0,STARLINK-5077,PAYLOAD,2023-10-12 12:29:29,14.97526367,0.000294,69.9988,119.9865,271.8815,88.2006,1.3705e-05,6.8e-07,0.0,0 STARLINK-5077,1 55391U 23014A   23285.52047688  .00000068  00000-0  13705-4 0  9997,2 55391  69.9988 119.9865 0002940 271.8815  88.2006 14.97526367 40390,6952.679,96.159,576.588,572.5,0.0
55391.0,STARLINK-5077,PAYLOAD,2023-10-12 18:54:13,14.97528481,0.0002952,69.9988,119.3138,271.4107,88.6713,3.3111e-05,2.95e-06,0.0,0 STARLINK-5077,1 55391U 23014A   23285.78765806  .00000295  00000-0  33111-4 0  9999,2 55391  69.9988 119.3138 0002952 271.4107  88.6713 14.97528481 39497,6952.673,96.158,576.59,572.485,0.0
